SIRION PATHFINDER-2     
1 43759U 18099B   26137.39085905  .00003283  00000+0  18296-3 0  9997
2 43759  97.4274 187.1834 0009997  54.6375 305.5790 15.14244237407967
CORVUS BC4              
1 43767U 18099K   26137.55444482  .00002803  00000+0  16578-3 0  9991
2 43767  97.4088 181.4340 0010053 105.3842 254.8500 15.12222606407774
M2 PATHFINDER           
1 45727U 20037E   26137.52133058  .00001215  00000+0  91189-4 0  9993
2 45727  97.8162 328.4106 0009927 254.3305 105.6826 15.04532011320884
NETSAT-4                
1 46504U 20068U   26137.00258065  .00014468  00000+0  33255-3 0  9993
2 46504  97.8609 142.7654 0007520  79.7395 280.4699 15.42764332310967
NETSAT-3                
1 46505U 20068V   26137.24409056  .00012629  00000+0  30267-3 0  9995
2 46505  97.8658 141.2828 0007540  92.0292 268.1817 15.41541908310916
NETSAT-1                
1 46506U 20068W   26137.48169205  .00008634  00000+0  26627-3 0  9997
2 46506  97.8749 136.2241 0006963 110.0854 250.1138 15.33838768310599
NETSAT-2                
1 46507U 20068X   26137.47118850  .00014285  00000+0  30878-3 0  9999
2 46507  97.8624 143.0608 0006266 100.7946 259.4007 15.44607097310991
GREENCUBE (IO-117)      
1 53109U 22080E   26137.52392553 -.00000003  00000+0  00000+0 0  9995
2 53109  70.1432 308.9131 0008812 296.7194  63.2564  6.42583321 90097
SITRO-AIS 5 (KATYS)     
1 57176U 23091L   26137.50877884  .00008149  00000+0  29429-3 0  9997
2 57176  97.5077 201.1317 0011149 202.8892 157.1852 15.28693625159657
SITRO-AIS 6 (CHIRKIN)   
1 57192U 23091AC  26137.61510806  .00006122  00000+0  24565-3 0  9990
2 57192  97.5084 200.5168 0011294 205.9196 154.1477 15.25304847159621
SITRO-AIS 8 (ANOKHIN)   
1 57193U 23091AD  26137.57808149  .00008545  00000+0  28533-3 0  9996
2 57193  97.5071 202.6691 0010490 197.9248 162.1624 15.31240302159767
SITRO-AIS 7 (FARTUSHNIY)
1 57194U 23091AE  26137.61215050  .00005684  00000+0  23033-3 0  9996
2 57194  97.5081 200.3542 0011133 206.9330 153.1331 15.25007622159615
SITRO-AIS 10 (BURDAEV)  
1 57199U 23091AK  26137.60478570  .00012830  00000+0  35209-3 0  9997
2 57199  97.5095 207.4436 0007468 170.7713 189.3670 15.37370144160067
SITRO-AIS 9 (SHCHUKIN)  
1 57201U 23091AM  26137.62185286  .00011990  00000+0  33406-3 0  9995
2 57201  97.5093 207.2142 0007677 171.2576 188.8803 15.36914773160058
SITRO-AIS 12 (SMIRENNIY)
1 57204U 23091AQ  26137.61818776  .00011954  00000+0  33004-3 0  9998
2 57204  97.5106 207.6587 0007466 165.4264 194.7197 15.37200777160075
SITRO-AIS 11 (SHEFFER)  
1 57208U 23091AU  26137.57468002  .00012882  00000+0  35097-3 0  9995
2 57208  97.5103 207.8422 0007362 165.4427 194.7031 15.37594927160083
SITRO-AIS 25            
1 59066U 24039R   26137.62159139  .00003685  00000+0  28673-3 0  9999
2 59066  95.3920 214.0911 0147382  75.3076 286.4434 14.93288638120160
SITRO-AIS 26            
1 59067U 24039S   26137.61884259  .00003741  00000+0  29237-3 0  9997
2 59067  95.3920 213.9932 0147692  75.8439 285.9146 14.93091306120151
SITRO-AIS 27            
1 59068U 24039T   26137.59758950  .00003063  00000+0  23788-3 0  9995
2 59068  95.3922 214.2363 0146625  74.5919 287.1450 14.93501370120171
SITRO-AIS 28            
1 59071U 24039U   26137.64273416  .00003228  00000+0  25027-3 0  9995
2 59071  95.3926 214.3127 0146696  74.2995 287.4358 14.93539779120182
GRBBETA                 
1 60237U 24128C   26137.48886597  .00002731  00000+0  19526-3 0  9997
2 60237  61.9901 323.9502 0044812 128.3151 232.1985 15.06365563101642
OOV-CUBE (TUBSAT-30)    
1 60240U 24128F   26137.24620921  .00001499  00000+0  12521-3 0  9990
2 60240  61.9947 333.4501 0048473 127.0171 233.5371 15.02602654101461
ROBUSTA-3A (MEDITERRAN*)
1 60243U 24128J   26137.50375191  .00005749  00000+0  34587-3 0  9996
2 60243  61.9865 316.7111 0045530 122.2807 238.2712 15.11153676101789
LASARSAT                
1 62391U 24247Q   26137.52982338  .00019309  00000+0  41588-3 0  9999
2 62391  44.9755  74.2193 0005258 153.8869 206.2286 15.44352225 78579
CROCUBE                 
1 62394U 24247T   26137.11002634  .00028478  00000+0  57686-3 0  9992
2 62394  44.9727  74.3723 0004879 154.0248 206.0887 15.45945015 78530
FORESAIL-1 PRIME        
1 66778U 25276DS  26137.48739435  .00003391  00000+0  16816-3 0  9998
2 66778  97.4209 211.3257 0002246 172.0596 188.0674 15.18394728 25742
KNACKSAT-2              
1 67683U 98067XZ  26137.57262129  .00026971  00000+0  36873-3 0  9997
2 67683  51.6299  88.1318 0012358  86.3962 273.8443 15.57155138 15509
